[{"OBJECT_NAME":"STARLINK-30521","OBJECT_ID":"2023-151C","EPOCH":"2026-03-09T03:09:39.578112","MEAN_MOTION":15.27587305,"ECCENTRICITY":0.00020162,"INCLINATION":43.0018,"RA_OF_ASC_NODE":338.9336,"ARG_OF_PERICENTER":248.1219,"MEAN_ANOMALY":111.9418,"EPHEMERIS_TYPE":0,"CLASSIFICATION_TYPE":"U","NORAD_CAT_ID":57966,"ELEMENT_SET_NO":999,"REV_AT_EPOCH":13568,"BSTAR":-0.00016835112,"MEAN_MOTION_DOT":-4.893e-5,"MEAN_MOTION_DDOT":0},{"OBJECT_NAME":"FLOCK 4G-27","OBJECT_ID":"2025-009AJ","EPOCH":"2026-03-09T18:05:51.175392","MEAN_MOTION":15.27199247,"ECCENTRICITY":7.564e-5,"INCLINATION":97.3976,"RA_OF_ASC_NODE":150.8631,"ARG_OF_PERICENTER":322.4974,"MEAN_ANOMALY":37.6212,"EPHEMERIS_TYPE":0,"CLASSIFICATION_TYPE":"U","NORAD_CAT_ID":62641,"ELEMENT_SET_NO":999,"REV_AT_EPOCH":6371,"BSTAR":0.00047455305,"MEAN_MOTION_DOT":0.00012587,"MEAN_MOTION_DDOT":0}]
