STARLINK-30521          
1 57966U 23151C   26068.13170808 -.00004893  00000+0 -16835-3 0  9996
2 57966  43.0018 338.9336 0002016 248.1219 111.9418 15.27587305135683
FLOCK 4G-27             
1 62641U 25009AJ  26068.75406453  .00012587  00000+0  47455-3 0  9991
2 62641  97.3976 150.8631 0000756 322.4974  37.6212 15.27199247 63710
